STARLINK-37216          
1 68391U 26063M   26092.75002315 -.01776907  94644-3 -36507-2 0  9998
2 68391  97.2823 233.5498 0001529  75.5954  91.9601 15.99447323  2326
STARLINK-37215          
1 68392U 26063N   26092.75002315 -.01794076  96526-3 -36570-2 0  9997
2 68392  97.2820 233.5510 0001488  81.0804  89.0356 15.99590160  2322
STARLINK-37184          
1 68393U 26063P   26092.75002315 -.01822130  99556-3 -36837-2 0  9993
2 68393  97.2823 233.5521 0001597  72.4321 100.2824 15.99739684  2329
STARLINK-37157          
1 68394U 26063Q   26092.75002315 -.01819945  99474-3 -36537-2 0  9990
2 68394  97.2820 233.5526 0001617  66.7918 107.9863 15.99863067  2323
STARLINK-37172          
1 68395U 26063R   26092.75002315 -.01835985  10145-2 -36307-2 0  9995
2 68395  97.2814 233.5544 0001588  73.7100 105.7685 16.00132100  2323
STARLINK-37190          
1 68396U 26063S   26092.75002315 -.01849746  10274-2 -36843-2 0  9994
2 68396  97.2814 233.5533 0001495  73.3323 103.5772 16.00006807  2329
STARLINK-37194          
1 68397U 26063T   26092.75002315 -.01819410  99872-3 -35726-2 0  9991
2 68397  97.2815 233.5554 0001610  65.7478 116.0867 16.00255178  2320
STARLINK-37220          
1 68398U 26063U   26092.75002315 -.02283890  15546-2 -43589-2 0  9991
2 68398  97.2815 233.5577 0002091  66.0397 120.4043 16.00790582  2322
STARLINK-37187          
1 68399U 26063V   26092.75002315 -.01834573  10161-2 -35747-2 0  9996
2 68399  97.2813 233.5566 0001625  66.9644 117.1108 16.00392506  2324
STARLINK-36235          
1 68400U 26063W   26092.75002315 -.01856481  10425-2 -35611-2 0  9994
2 68400  97.2810 233.5586 0001536  80.5141 108.5827 16.00671292  2325
STARLINK-37175          
1 68401U 26063X   26092.75002315 -.01858405  10462-2 -35380-2 0  9997
2 68401  97.2812 233.5601 0001605  70.4024 121.2648 16.00803270  2327
STARLINK-36360          
1 68402U 26063Y   26092.75002315 -.01885974  10776-2 -35609-2 0  9991
2 68402  97.2811 233.5611 0001494  76.7215 117.4227 16.00951512  2328
